[{"OBJECT_NAME":"STARLINK-35384","OBJECT_ID":"2025-224C","EPOCH":"2026-03-09T02:31:41.882304","MEAN_MOTION":15.30204517,"ECCENTRICITY":8.099e-5,"INCLINATION":53.1627,"RA_OF_ASC_NODE":14.1515,"ARG_OF_PERICENTER":90.1051,"MEAN_ANOMALY":270.0043,"EPHEMERIS_TYPE":0,"CLASSIFICATION_TYPE":"U","NORAD_CAT_ID":65884,"ELEMENT_SET_NO":999,"REV_AT_EPOCH":2473,"BSTAR":0.0012035157,"MEAN_MOTION_DOT":0.00035461,"MEAN_MOTION_DDOT":0},{"OBJECT_NAME":"SL-12 R\/B(AUX MOTOR)","OBJECT_ID":"1984-047G","EPOCH":"2026-03-08T09:49:06.973536","MEAN_MOTION":4.70253073,"ECCENTRICITY":0.55099441,"INCLINATION":52.0512,"RA_OF_ASC_NODE":174.944,"ARG_OF_PERICENTER":340.3344,"MEAN_ANOMALY":4.819,"EPHEMERIS_TYPE":0,"CLASSIFICATION_TYPE":"U","NORAD_CAT_ID":15053,"ELEMENT_SET_NO":999,"REV_AT_EPOCH":67933,"BSTAR":0.00086699715,"MEAN_MOTION_DOT":1.412e-5,"MEAN_MOTION_DDOT":0}]
